start=new Date('2021-11-16T00:00:00.000Z').valueOf();
sats=[{"ARG_OF_PERICENTER":"77.3142","RA_OF_ASC_NODE":"191.1360","MEAN_ANOMALY":"282.8035","SITE":"AFETR","MEAN_ELEMENT_THEORY":"SGP4","COUNTRY_CODE":"US","APOAPSIS":"548.425","RCS_SIZE":"LARGE","MEAN_MOTION_DDOT":"0.0000000000000","FILE":"3215928","SEMIMAJOR_AXIS":"6925.392","MEAN_MOTION_DOT":"0.00000978","PERIOD":"95.593","CLASSIFICATION_TYPE":"U","NORAD_CAT_ID":"46742","MEAN_MOTION":"15.06385791","REF_FRAME":"TEME","PERIAPSIS":"546.089","OBJECT_NAME":"STARLINK-1872","EPHEMERIS_TYPE":"0","GP_ID":"189837398","ELEMENT_SET_NO":"999","ECCENTRICITY":"0.00016870","DECAY_DATE":null,"EPOCH":"2021-11-15T21:29:07.852128","INCLINATION":"53.0543","OBJECT_TYPE":"PAYLOAD","BSTAR":"0.00008460800000","TLE_LINE2":"2 46742  53.0543 191.1360 0001687  77.3142 282.8035 15.06385791 59313","TLE_LINE1":"1 46742U 20074D   21319.89522977  .00000978  00000-0  84608-4 0  9995","REV_AT_EPOCH":"5931","CENTER_NAME":"EARTH","LAUNCH_DATE":"2020-10-24","OBJECT_ID":"2020-074D","TIME_SYSTEM":"UTC"},{"APOAPSIS":"551.195","COUNTRY_CODE":"US","MEAN_ANOMALY":"297.5447","SITE":"AFETR","MEAN_ELEMENT_THEORY":"SGP4","RA_OF_ASC_NODE":"191.0447","ARG_OF_PERICENTER":"62.6129","FILE":"3215928","MEAN_MOTION_DDOT":"0.0000000000000","RCS_SIZE":"LARGE","MEAN_MOTION":"15.06404142","PERIOD":"95.592","CLASSIFICATION_TYPE":"U","NORAD_CAT_ID":"46743","MEAN_MOTION_DOT":"0.00001406","SEMIMAJOR_AXIS":"6925.336","EPHEMERIS_TYPE":"0","OBJECT_NAME":"STARLINK-1892","PERIAPSIS":"543.206","REF_FRAME":"TEME","GP_ID":"189838649","BSTAR":"0.00011335000000","OBJECT_TYPE":"PAYLOAD","EPOCH":"2021-11-15T22:00:57.298176","INCLINATION":"53.0532","DECAY_DATE":null,"ECCENTRICITY":"0.00057680","ELEMENT_SET_NO":"999","CENTER_NAME":"EARTH","REV_AT_EPOCH":"5932","TLE_LINE1":"1 46743U 20074E   21319.91732984  .00001406  00000-0  11335-3 0  9993","TLE_LINE2":"2 46743  53.0532 191.0447 0005768  62.6129 297.5447 15.06404142 59326","OBJECT_ID":"2020-074E","TIME_SYSTEM":"UTC","LAUNCH_DATE":"2020-10-24"},{"PERIOD":"95.592","CLASSIFICATION_TYPE":"U","NORAD_CAT_ID":"46744","MEAN_MOTION_DOT":"0.00001336","SEMIMAJOR_AXIS":"6925.359","MEAN_MOTION":"15.06396741","REF_FRAME":"TEME","OBJECT_NAME":"STARLINK-1894","EPHEMERIS_TYPE":"0","PERIAPSIS":"545.980","COUNTRY_CODE":"US","MEAN_ANOMALY":"294.5427","SITE":"AFETR","MEAN_ELEMENT_THEORY":"SGP4","RA_OF_ASC_NODE":"190.9597","ARG_OF_PERICENTER":"65.5749","APOAPSIS":"548.467","RCS_SIZE":"LARGE","FILE":"3215928","MEAN_MOTION_DDOT":"0.0000000000000","TLE_LINE1":"1 46744U 20074F   21319.93576987  .00001336  00000-0  10858-3 0  9996","TLE_LINE2":"2 46744  53.0527 190.9597 0001795  65.5749 294.5427 15.06396741 59321","CENTER_NAME":"EARTH","REV_AT_EPOCH":"5932","LAUNCH_DATE":"2020-10-24","TIME_SYSTEM":"UTC","OBJECT_ID":"2020-074F","GP_ID":"189838900","DECAY_DATE":null,"ECCENTRICITY":"0.00017950","ELEMENT_SET_NO":"999","OBJECT_TYPE":"PAYLOAD","BSTAR":"0.00010858000000","INCLINATION":"53.0527","EPOCH":"2021-11-15T22:27:30.516768"},{"TIME_SYSTEM":"UTC","OBJECT_ID":"2020-074G","LAUNCH_DATE":"2020-10-24","REV_AT_EPOCH":"5931","CENTER_NAME":"EARTH","TLE_LINE1":"1 46745U 20074G   21319.84460254  .00426448  00000-0  18075-1 0  9998","TLE_LINE2":"2 46745  53.0529 190.8684 0002056  79.7865 280.3362 15.20701255 59313","BSTAR":"0.01807500000000","OBJECT_TYPE":"PAYLOAD","INCLINATION":"53.0529","EPOCH":"2021-11-15T20:16:13.659456","ELEMENT_SET_NO":"999","DECAY_DATE":null,"ECCENTRICITY":"0.00020560","GP_ID":"189837648","PERIAPSIS":"502.311","OBJECT_NAME":"STARLINK-1898","EPHEMERIS_TYPE":"0","REF_FRAME":"TEME","MEAN_MOTION":"15.20701255","SEMIMAJOR_AXIS":"6881.861","CLASSIFICATION_TYPE":"U","PERIOD":"94.693","NORAD_CAT_ID":"46745","MEAN_MOTION_DOT":"0.00426448","FILE":"3215928","MEAN_MOTION_DDOT":"0.0000000000000","RCS_SIZE":"LARGE","APOAPSIS":"505.141","RA_OF_ASC_NODE":"190.8684","ARG_OF_PERICENTER":"79.7865","COUNTRY_CODE":"US","MEAN_ELEMENT_THEORY":"SGP4","SITE":"AFETR","MEAN_ANOMALY":"280.3362"},{"OBJECT_ID":"2020-074H","TIME_SYSTEM":"UTC","LAUNCH_DATE":"2020-10-24","REV_AT_EPOCH":"5932","CENTER_NAME":"EARTH","TLE_LINE1":"1 46746U 20074H   21319.95050865  .00001517  00000-0  12071-3 0  9992","TLE_LINE2":"2 46746  53.0537 190.8908 0001753  74.1572 285.9610 15.06397183 59322","OBJECT_TYPE":"PAYLOAD","BSTAR":"0.00012071000000","INCLINATION":"53.0537","EPOCH":"2021-11-15T22:48:43.947360","ELEMENT_SET_NO":"999","DECAY_DATE":null,"ECCENTRICITY":"0.00017530","GP_ID":"189837898","PERIAPSIS":"546.008","OBJECT_NAME":"STARLINK-1905","EPHEMERIS_TYPE":"0","REF_FRAME":"TEME","MEAN_MOTION":"15.06397183","SEMIMAJOR_AXIS":"6925.357","PERIOD":"95.592","NORAD_CAT_ID":"46746","CLASSIFICATION_TYPE":"U","MEAN_MOTION_DOT":"0.00001517","FILE":"3215928","MEAN_MOTION_DDOT":"0.0000000000000","RCS_SIZE":"LARGE","APOAPSIS":"548.436","RA_OF_ASC_NODE":"190.8908","ARG_OF_PERICENTER":"74.1572","COUNTRY_CODE":"US","MEAN_ELEMENT_THEORY":"SGP4","SITE":"AFETR","MEAN_ANOMALY":"285.9610"},{"MEAN_MOTION":"15.06393700","MEAN_MOTION_DOT":"-0.00000453","PERIOD":"95.593","NORAD_CAT_ID":"46747","CLASSIFICATION_TYPE":"U","SEMIMAJOR_AXIS":"6925.368","OBJECT_NAME":"STARLINK-1908","EPHEMERIS_TYPE":"0","PERIAPSIS":"546.006","REF_FRAME":"TEME","APOAPSIS":"548.460","MEAN_ELEMENT_THEORY":"SGP4","SITE":"AFETR","MEAN_ANOMALY":"290.5334","COUNTRY_CODE":"US","ARG_OF_PERICENTER":"69.5845","RA_OF_ASC_NODE":"190.9710","MEAN_MOTION_DDOT":"0.0000000000000","FILE":"3215928","RCS_SIZE":"LARGE","CENTER_NAME":"EARTH","REV_AT_EPOCH":"5932","TLE_LINE2":"2 46747  53.0532 190.9710 0001772  69.5845 290.5334 15.06393700 59328","TLE_LINE1":"1 46747U 20074J   21319.93208110 -.00000453  00000-0 -11479-4 0  9991","OBJECT_ID":"2020-074J","TIME_SYSTEM":"UTC","LAUNCH_DATE":"2020-10-24","GP_ID":"189838150","INCLINATION":"53.0532","EPOCH":"2021-11-15T22:22:11.807040","BSTAR":"-0.00001147900000","OBJECT_TYPE":"PAYLOAD","ECCENTRICITY":"0.00017720","DECAY_DATE":null,"ELEMENT_SET_NO":"999"},{"TLE_LINE2":"2 46748  53.0542 190.9499 0002346  50.9990 309.1208 15.06397178 59327","TLE_LINE1":"1 46748U 20074K   21319.93944994 -.00000561  00000-0 -18733-4 0  9999","REV_AT_EPOCH":"5932","CENTER_NAME":"EARTH","LAUNCH_DATE":"2020-10-24","OBJECT_ID":"2020-074K","TIME_SYSTEM":"UTC","GP_ID":"189838401","ELEMENT_SET_NO":"999","ECCENTRICITY":"0.00023460","DECAY_DATE":null,"INCLINATION":"53.0542","EPOCH":"2021-11-15T22:32:48.474816","BSTAR":"-0.00001873300000","OBJECT_TYPE":"PAYLOAD","SEMIMAJOR_AXIS":"6925.357","MEAN_MOTION_DOT":"-0.00000561","PERIOD":"95.592","CLASSIFICATION_TYPE":"U","NORAD_CAT_ID":"46748","MEAN_MOTION":"15.06397178","REF_FRAME":"TEME","PERIAPSIS":"545.598","EPHEMERIS_TYPE":"0","OBJECT_NAME":"STARLINK-1910","ARG_OF_PERICENTER":"50.9990","RA_OF_ASC_NODE":"190.9499","MEAN_ANOMALY":"309.1208","SITE":"AFETR","MEAN_ELEMENT_THEORY":"SGP4","COUNTRY_CODE":"US","APOAPSIS":"548.847","RCS_SIZE":"LARGE","MEAN_MOTION_DDOT":"0.0000000000000","FILE":"3215928"},{"ECCENTRICITY":"0.00019180","DECAY_DATE":null,"ELEMENT_SET_NO":"999","EPOCH":"2021-11-15T22:43:25.937472","INCLINATION":"53.0545","OBJECT_TYPE":"PAYLOAD","BSTAR":"-0.00001494900000","GP_ID":"189837149","LAUNCH_DATE":"2020-10-24","OBJECT_ID":"2020-074L","TIME_SYSTEM":"UTC","TLE_LINE2":"2 46749  53.0545 190.9136 0001918  70.3446 289.7750 15.06390729 59325","TLE_LINE1":"1 46749U 20074L   21319.94682798 -.00000504  00000-0 -14949-4 0  9994","CENTER_NAME":"EARTH","REV_AT_EPOCH":"5932","RCS_SIZE":"LARGE","MEAN_MOTION_DDOT":"0.0000000000000","FILE":"3215928","MEAN_ELEMENT_THEORY":"SGP4","SITE":"AFETR","MEAN_ANOMALY":"289.7750","COUNTRY_CODE":"US","ARG_OF_PERICENTER":"70.3446","RA_OF_ASC_NODE":"190.9136","APOAPSIS":"548.570","REF_FRAME":"TEME","OBJECT_NAME":"STARLINK-1911","EPHEMERIS_TYPE":"0","PERIAPSIS":"545.914","MEAN_MOTION_DOT":"-0.00000504","CLASSIFICATION_TYPE":"U","PERIOD":"95.593","NORAD_CAT_ID":"46749","SEMIMAJOR_AXIS":"6925.377","MEAN_MOTION":"15.06390729"},{"APOAPSIS":"548.616","ARG_OF_PERICENTER":"71.7251","RA_OF_ASC_NODE":"190.9356","SITE":"AFETR","MEAN_ANOMALY":"288.3959","MEAN_ELEMENT_THEORY":"SGP4","COUNTRY_CODE":"US","MEAN_MOTION_DDOT":"0.0000000000000","FILE":"3215928","RCS_SIZE":"LARGE","MEAN_MOTION":"15.06402086","SEMIMAJOR_AXIS":"6925.342","MEAN_MOTION_DOT":"-0.00001094","PERIOD":"95.592","CLASSIFICATION_TYPE":"U","NORAD_CAT_ID":"46751","PERIAPSIS":"545.798","EPHEMERIS_TYPE":"0","OBJECT_NAME":"STARLINK-1920","REF_FRAME":"TEME","GP_ID":"189837399","INCLINATION":"53.0538","EPOCH":"2021-11-15T22:38:06.317088","BSTAR":"-0.00005450300000","OBJECT_TYPE":"PAYLOAD","ELEMENT_SET_NO":"999","ECCENTRICITY":"0.00020350","DECAY_DATE":null,"REV_AT_EPOCH":"5932","CENTER_NAME":"EARTH","TLE_LINE2":"2 46751  53.0538 190.9356 0002035  71.7251 288.3959 15.06402086 59320","TLE_LINE1":"1 46751U 20074N   21319.94312867 -.00001094  00000-0 -54503-4 0  9999","TIME_SYSTEM":"UTC","OBJECT_ID":"2020-074N","LAUNCH_DATE":"2020-10-24"},{"MEAN_MOTION_DDOT":"0.0000000000000","FILE":"3215928","RCS_SIZE":"LARGE","APOAPSIS":"548.799","ARG_OF_PERICENTER":"55.7453","RA_OF_ASC_NODE":"191.1865","MEAN_ELEMENT_THEORY":"SGP4","SITE":"AFETR","MEAN_ANOMALY":"304.3749","COUNTRY_CODE":"US","PERIAPSIS":"545.684","OBJECT_NAME":"STARLINK-1921","EPHEMERIS_TYPE":"0","REF_FRAME":"TEME","MEAN_MOTION":"15.06390839","SEMIMAJOR_AXIS":"6925.377","MEAN_MOTION_DOT":"0.00000488","CLASSIFICATION_TYPE":"U","PERIOD":"95.593","NORAD_CAT_ID":"46752","EPOCH":"2021-11-15T21:18:30.646080","INCLINATION":"53.0523","OBJECT_TYPE":"PAYLOAD","BSTAR":"0.00005168200000","ELEMENT_SET_NO":"999","ECCENTRICITY":"0.00022490","DECAY_DATE":null,"GP_ID":"189838650","OBJECT_ID":"2020-074P","TIME_SYSTEM":"UTC","LAUNCH_DATE":"2020-10-24","REV_AT_EPOCH":"5931","CENTER_NAME":"EARTH","TLE_LINE2":"2 46752  53.0523 191.1865 0002249  55.7453 304.3749 15.06390839 59313","TLE_LINE1":"1 46752U 20074P   21319.88785470  .00000488  00000-0  51682-4 0  9996"}];
